[{"OBJECT_NAME":"NUSAT-33 (ALBANIA-2)","OBJECT_ID":"2023-001AQ","EPOCH":"2026-03-09T22:33:27.663264","MEAN_MOTION":15.26923259,"ECCENTRICITY":0.00076854,"INCLINATION":97.3178,"RA_OF_ASC_NODE":131.8399,"ARG_OF_PERICENTER":52.546,"MEAN_ANOMALY":307.6477,"EPHEMERIS_TYPE":0,"CLASSIFICATION_TYPE":"U","NORAD_CAT_ID":55047,"ELEMENT_SET_NO":999,"REV_AT_EPOCH":17716,"BSTAR":0.0004947656,"MEAN_MOTION_DOT":0.00013029,"MEAN_MOTION_DDOT":0},{"OBJECT_NAME":"STARLINK-32893","OBJECT_ID":"2025-024U","EPOCH":"2026-03-09T03:00:34.204896","MEAN_MOTION":15.27622987,"ECCENTRICITY":0.00032194,"INCLINATION":43,"RA_OF_ASC_NODE":328.2049,"ARG_OF_PERICENTER":247.3227,"MEAN_ANOMALY":112.7284,"EPHEMERIS_TYPE":0,"CLASSIFICATION_TYPE":"U","NORAD_CAT_ID":62897,"ELEMENT_SET_NO":999,"REV_AT_EPOCH":6218,"BSTAR":0.0015195816,"MEAN_MOTION_DOT":0.0004185,"MEAN_MOTION_DDOT":0}]
